{"type": "FeatureCollection", "features": [ {"type": "Feature", "properties": {"norad_id": 37216, "name": "COSMO-SKYMED 4", "group": "resource", "lat": -81.9022403730136, "lon": -79.09902910882847, "alt_km": 630.8719873630744, "timestamp": "2025-12-22T11:33:20.086185+00:00", "meta": {"OBJECT_NAME": "COSMO-SKYMED 4", "OBJECT_ID": "2010-060A", "EPOCH": "2025-12-22T03:52:05.977920", "MEAN_MOTION": 14.82154756, "ECCENTRICITY": 0.0001421, "INCLINATION": 97.8799, "RA_OF_ASC_NODE": 177.3422, "ARG_OF_PERICENTER": 80.8075, "MEAN_ANOMALY": 279.3299, "EPHEMERIS_TYPE": 0, "CLASSIFICATION_TYPE": "U", "NORAD_CAT_ID": 37216, "ELEMENT_SET_NO": 999, "REV_AT_EPOCH": 81834, "BSTAR": 2.7072e-05, "MEAN_MOTION_DOT": 1.63e-06, "MEAN_MOTION_DDOT": 0}, "tle": {"line1": "1 37216U 10060A   25356.16118030  .00000163  00000+0  27072-4 0  9998", "line2": "2 37216  97.8799 177.3422 0001421  80.8075 279.3299 14.82154756818340"}}, "geometry": {"type": "Point", "coordinates": [-79.09902910882847, -81.9022403730136]}}, {"type": "Feature", "properties": {"norad_id": 37387, "name": "RESOURCESAT-2", "group": "resource", "lat": -80.69473838206122, "lon": 130.7116882921268, "alt_km": 828.2418006698554, "timestamp": "2025-12-22T11:33:20.086196+00:00", "meta": {"OBJECT_NAME": "RESOURCESAT-2", "OBJECT_ID": "2011-015A", "EPOCH": "2025-12-22T03:31:04.353024", "MEAN_MOTION": 14.21600785, "ECCENTRICITY": 0.0005982, "INCLINATION": 98.7864, "RA_OF_ASC_NODE": 59.6557, "ARG_OF_PERICENTER": 17.1108, "MEAN_ANOMALY": 343.027, "EPHEMERIS_TYPE": 0, "CLASSIFICATION_TYPE": "U", "NORAD_CAT_ID": 37387, "ELEMENT_SET_NO": 999, "REV_AT_EPOCH": 76102, "BSTAR": 7.7186e-05, "MEAN_MOTION_DOT": 1.25e-06, "MEAN_MOTION_DDOT": 0}, "tle": {"line1": "1 37387U 11015A   25356.14657816  .00000125  00000+0  77186-4 0  9995", "line2": "2 37387  98.7864  59.6557 0005982  17.1108 343.0270 14.21600785761020"}}, "geometry": {"type": "Point", "coordinates": [130.7116882921268, -80.69473838206122]}}, {"type": "Feature", "properties": {"norad_id": 37781, "name": "HAIYANG-2A", "group": "resource", "lat": -78.7180290146459, "lon": 121.70739674666854, "alt_km": 976.4815365414543, "timestamp": "2025-12-22T11:33:20.086206+00:00", "meta": {"OBJECT_NAME": "HAIYANG-2A", "OBJECT_ID": "2011-043A", "EPOCH": "2025-12-22T03:18:53.125632", "MEAN_MOTION": 13.78835437, "ECCENTRICITY": 0.0001623, "INCLINATION": 99.3371, "RA_OF_ASC_NODE": 356.9277, "ARG_OF_PERICENTER": 71.5317, "MEAN_ANOMALY": 288.6011, "EPHEMERIS_TYPE": 0, "CLASSIFICATION_TYPE": "U", "NORAD_CAT_ID": 37781, "ELEMENT_SET_NO": 999, "REV_AT_EPOCH": 72228, "BSTAR": -0.00015137, "MEAN_MOTION_DOT": -1.98e-06, "MEAN_MOTION_DDOT": 0}, "tle": {"line1": "1 37781U 11043A   25356.13811488 -.00000198  00000+0 -15137-3 0  9999", "line2": "2 37781  99.3371 356.9277 0001623  71.5317 288.6011 13.78835437722281"}}, "geometry": {"type": "Point", "coordinates": [121.70739674666854, -78.7180290146459]}}, {"type": "Feature", "properties": {"norad_id": 37791, "name": "RASAT", "group": "resource", "lat": -76.45364353298696, "lon": -130.4573095305453, "alt_km": 685.998547514464, "timestamp": "2025-12-22T11:33:20.086216+00:00", "meta": {"OBJECT_NAME": "RASAT", "OBJECT_ID": "2011-044D", "EPOCH": "2025-12-22T05:43:02.194176", "MEAN_MOTION": 14.67921408, "ECCENTRICITY": 0.0021447, "INCLINATION": 98.0652, "RA_OF_ASC_NODE": 85.3554, "ARG_OF_PERICENTER": 36.3954, "MEAN_ANOMALY": 18.0778, "EPHEMERIS_TYPE": 0, "CLASSIFICATION_TYPE": "U", "NORAD_CAT_ID": 37791, "ELEMENT_SET_NO": 999, "REV_AT_EPOCH": 76722, "BSTAR": 9.0842e-05, "MEAN_MOTION_DOT": 4.72e-06, "MEAN_MOTION_DDOT": 0}, "tle": {"line1": "1 37791U 11044D   25356.23821984  .00000472  00000+0  90842-4 0  9994", "line2": "2 37791  98.0652  85.3554 0021447  36.3954  18.0778 14.67921408767224"}}, "geometry": {"type": "Point", "coordinates": [-130.4573095305453, -76.45364353298696]}}, {"type": "Feature", "properties": {"norad_id": 37841, "name": "SRMSAT", "group": "resource", "lat": 1.2226408039977883, "lon": 52.36376061944852, "alt_km": 846.9363999000097, "timestamp": "2025-12-22T11:33:20.086227+00:00", "meta": {"OBJECT_NAME": "SRMSAT", "OBJECT_ID": "2011-058D", "EPOCH": "2025-12-21T21:00:00.616896", "MEAN_MOTION": 14.11514404, "ECCENTRICITY": 0.0011977, "INCLINATION": 19.9727, "RA_OF_ASC_NODE": 52.6627, "ARG_OF_PERICENTER": 53.5792, "MEAN_ANOMALY": 101.7167, "EPHEMERIS_TYPE": 0, "CLASSIFICATION_TYPE": "U", "NORAD_CAT_ID": 37841, "ELEMENT_SET_NO": 999, "REV_AT_EPOCH": 73273, "BSTAR": 7.749e-05, "MEAN_MOTION_DOT": 4.07e-06, "MEAN_MOTION_DDOT": 0}, "tle": {"line1": "1 37841U 11058D   25355.87500714  .00000407  00000+0  77490-4 0  9991", "line2": "2 37841  19.9727  52.6627 0011977  53.5792 101.7167 14.11514404732734"}}, "geometry": {"type": "Point", "coordinates": [52.36376061944852, 1.2226408039977883]}}, {"type": "Feature", "properties": {"norad_id": 38012, "name": "PLEIADES 1A", "group": "resource", "lat": 81.27924892895956, "lon": -0.6088751046906243, "alt_km": 689.5785600198797, "timestamp": "2025-12-22T11:33:20.086237+00:00", "meta": {"OBJECT_NAME": "PLEIADES 1A", "OBJECT_ID": "2011-076F", "EPOCH": "2025-12-22T04:57:28.329696", "MEAN_MOTION": 14.58568748, "ECCENTRICITY": 0.0001122, "INCLINATION": 98.1818, "RA_OF_ASC_NODE": 68.8292, "ARG_OF_PERICENTER": 74.6204, "MEAN_ANOMALY": 9.7418, "EPHEMERIS_TYPE": 0, "CLASSIFICATION_TYPE": "U", "NORAD_CAT_ID": 38012, "ELEMENT_SET_NO": 999, "REV_AT_EPOCH": 74619, "BSTAR": 4.2255e-05, "MEAN_MOTION_DOT": 1.51e-06, "MEAN_MOTION_DDOT": 0}, "tle": {"line1": "1 38012U 11076F   25356.20657789  .00000151  00000+0  42255-4 0  9992", "line2": "2 38012  98.1818  68.8292 0001122  74.6204   9.7418 14.58568748746197"}}, "geometry": {"type": "Point", "coordinates": [-0.6088751046906243, 81.27924892895956]}}, {"type": "Feature", "properties": {"norad_id": 38038, "name": "ZIYUAN 1-02C (ZY 1-02C)", "group": "resource", "lat": -4.807911538465953, "lon": 63.03051679923954, "alt_km": 771.0849887176028, "timestamp": "2025-12-22T11:33:20.086247+00:00", "meta": {"OBJECT_NAME": "ZIYUAN 1-02C (ZY 1-02C)", "OBJECT_ID": "2011-079A", "EPOCH": "2025-12-22T05:19:28.488000", "MEAN_MOTION": 14.38021504, "ECCENTRICITY": 0.0007506, "INCLINATION": 98.4326, "RA_OF_ASC_NODE": 62.0608, "ARG_OF_PERICENTER": 113.7303, "MEAN_ANOMALY": 338.3341, "EPHEMERIS_TYPE": 0, "CLASSIFICATION_TYPE": "U", "NORAD_CAT_ID": 38038, "ELEMENT_SET_NO": 999, "REV_AT_EPOCH": 73377, "BSTAR": 0.00011354, "MEAN_MOTION_DOT": 3e-06, "MEAN_MOTION_DDOT": 0}, "tle": {"line1": "1 38038U 11079A   25356.22185750  .00000300  00000+0  11354-3 0  9990", "line2": "2 38038  98.4326  62.0608 0007506 113.7303 338.3341 14.38021504733774"}}, "geometry": {"type": "Point", "coordinates": [63.03051679923954, -4.807911538465953]}}, {"type": "Feature", "properties": {"norad_id": 38338, "name": "ARIRANG-3 (KOMPSAT-3)", "group": "resource", "lat": 80.28620728438607, "lon": -169.95278194230877, "alt_km": 683.1548496556461, "timestamp": "2025-12-22T11:33:20.086257+00:00", "meta": {"OBJECT_NAME": "ARIRANG-3 (KOMPSAT-3)", "OBJECT_ID": "2012-025B", "EPOCH": "2025-12-22T04:33:03.893760", "MEAN_MOTION": 14.61724481, "ECCENTRICITY": 0.0004809, "INCLINATION": 98.3336, "RA_OF_ASC_NODE": 310.8508, "ARG_OF_PERICENTER": 305.3599, "MEAN_ANOMALY": 54.7152, "EPHEMERIS_TYPE": 0, "CLASSIFICATION_TYPE": "U", "NORAD_CAT_ID": 38338, "ELEMENT_SET_NO": 999, "REV_AT_EPOCH": 72548, "BSTAR": 0.00011414, "MEAN_MOTION_DOT": 5.2e-06, "MEAN_MOTION_DDOT": 0}, "tle": {"line1": "1 38338U 12025B   25356.18962840  .00000520  00000+0  11414-3 0  9994", "line2": "2 38338  98.3336 310.8508 0004809 305.3599  54.7152 14.61724481725487"}}, "geometry": {"type": "Point", "coordinates": [-169.95278194230877, 80.28620728438607]}}, {"type": "Feature", "properties": {"norad_id": 38709, "name": "EXACTVIEW-1 (ADS-1B)", "group": "resource", "lat": -62.65652335510668, "lon": -92.69659654309771, "alt_km": 814.8185081307956, "timestamp": "2025-12-22T11:33:20.086267+00:00", "meta": {"OBJECT_NAME": "EXACTVIEW-1 (ADS-1B)", "OBJECT_ID": "2012-039C", "EPOCH": "2025-12-21T22:36:58.315104", "MEAN_MOTION": 14.24911545, "ECCENTRICITY": 0.0010224, "INCLINATION": 98.9638, "RA_OF_ASC_NODE": 104.5255, "ARG_OF_PERICENTER": 326.864, "MEAN_ANOMALY": 33.1897, "EPHEMERIS_TYPE": 0, "CLASSIFICATION_TYPE": "U", "NORAD_CAT_ID": 38709, "ELEMENT_SET_NO": 999, "REV_AT_EPOCH": 69746, "BSTAR": 8.0889e-05, "MEAN_MOTION_DOT": 1.43e-06, "MEAN_MOTION_DDOT": 0}, "tle": {"line1": "1 38709U 12039C   25355.94234161  .00000143  00000+0  80889-4 0  9996", "line2": "2 38709  98.9638 104.5255 0010224 326.8640  33.1897 14.24911545697461"}}, "geometry": {"type": "Point", "coordinates": [-92.69659654309771, -62.65652335510668]}}, {"type": "Feature", "properties": {"norad_id": 38755, "name": "SPOT 6", "group": "resource", "lat": 10.33906323715518, "lon": 59.58711691748871, "alt_km": 699.0836714325169, "timestamp": "2025-12-22T11:33:20.086277+00:00", "meta": {"OBJECT_NAME": "SPOT 6", "OBJECT_ID": "2012-047A", "EPOCH": "2025-12-22T04:55:19.177248", "MEAN_MOTION": 14.58539191, "ECCENTRICITY": 0.0001292, "INCLINATION": 98.1565, "RA_OF_ASC_NODE": 60.8152, "ARG_OF_PERICENTER": 78.7536, "MEAN_ANOMALY": 281.3809, "EPHEMERIS_TYPE": 0, "CLASSIFICATION_TYPE": "U", "NORAD_CAT_ID": 38755, "ELEMENT_SET_NO": 999, "REV_AT_EPOCH": 70725, "BSTAR": 3.0499e-05, "MEAN_MOTION_DOT": 9.6e-07, "MEAN_MOTION_DDOT": 0}, "tle": {"line1": "1 38755U 12047A   25356.20508307  .00000096  00000+0  30499-4 0  9991", "line2": "2 38755  98.1565  60.8152 0001292  78.7536 281.3809 14.58539191707254"}}, "geometry": {"type": "Point", "coordinates": [59.58711691748871, 10.33906323715518]}}]}